{
    "links": {
        "self": "http://www.neowsapp.com/rest/v1/neo/3407943?api_key=iIulBulltgU6a56xZRHN4H3l9WmuAYTsLGpBGhQ2"
    },
    "id": "3407943",
    "neo_reference_id": "3407943",
    "name": "(2008 FL7)",
    "designation": "2008 FL7",
    "nasa_jpl_url": "http://ssd.jpl.nasa.gov/sbdb.cgi?sstr=3407943",
    "absolute_magnitude_h": 24.5,
    "estimated_diameter": {
        "kilometers": {
            "estimated_diameter_min": 0.0334622374,
            "estimated_diameter_max": 0.0748238376
        },
        "meters": {
            "estimated_diameter_min": 33.4622374455,
            "estimated_diameter_max": 74.8238376074
        },
        "miles": {
            "estimated_diameter_min": 0.0207924639,
            "estimated_diameter_max": 0.0464933628
        },
        "feet": {
            "estimated_diameter_min": 109.7842471007,
            "estimated_diameter_max": 245.4850393757
        }
    },
    "is_potentially_hazardous_asteroid": false,
    "close_approach_data": [
        {
            "close_approach_date": "1933-08-31",
            "close_approach_date_full": "1933-Aug-31 10:26",
            "epoch_date_close_approach": -1146663240000,
            "relative_velocity": {
                "kilometers_per_second": "14.6506959812",
                "kilometers_per_hour": "52742.5055323441",
                "miles_per_hour": "32772.1418403613"
            },
            "miss_distance": {
                "astronomical": "0.0241848287",
                "lunar": "9.4078983643",
                "kilometers": "3617998.859834869",
                "miles": "2248120.2447804322"
            },
            "orbiting_body": "Mars"
        },
        {
            "close_approach_date": "2008-03-12",
            "close_approach_date_full": "2008-Mar-12 04:21",
            "epoch_date_close_approach": 1205295660000,
            "relative_velocity": {
                "kilometers_per_second": "6.6288385251",
                "kilometers_per_hour": "23863.8186902029",
                "miles_per_hour": "14828.0488966985"
            },
            "miss_distance": {
                "astronomical": "0.0358451487",
                "lunar": "13.9437628443",
                "kilometers": "5362357.895353269",
                "miles": "3332014.6885983522"
            },
            "orbiting_body": "Earth"
        }
    ],
    "orbital_data": {
        "orbit_id": "11",
        "orbit_determination_date": "2017-04-06 09:03:51",
        "first_observation_date": "2008-03-31",
        "last_observation_date": "2008-04-06",
        "data_arc_in_days": 6,
        "observations_used": 31,
        "orbit_uncertainty": "8",
        "minimum_orbit_intersection": ".0354413",
        "jupiter_tisserand_invariant": "3.584",
        "epoch_osculation": "2454559.5",
        "eccentricity": ".5147022940563174",
        "semi_major_axis": "2.081008965582821",
        "inclination": "2.08800197766441",
        "ascending_node_longitude": "41.7353862235414",
        "orbital_period": "1096.501812234847",
        "perihelion_distance": "1.009908877045579",
        "perihelion_argument": "119.2672606043079",
        "aphelion_distance": "3.152109054120063",
        "perihelion_time": "2454528.731883225106",
        "mean_anomaly": "10.10169059035672",
        "mean_motion": ".3283168308370254",
        "equinox": "J2000",
        "orbit_class": {
            "orbit_class_type": "APO",
            "orbit_class_description": "Near-Earth asteroid orbits which cross the Earth’s orbit similar to that of 1862 Apollo",
            "orbit_class_range": "a (semi-major axis) > 1.0 AU; q (perihelion) < 1.017 AU"
        }
    },
    "is_sentry_object": false
}